[{"OBJECT_NAME":"STARLINK-2672","OBJECT_ID":"2021-044N","EPOCH":"2026-03-09T10:42:01.252512","MEAN_MOTION":15.30208377,"ECCENTRICITY":0.00012776,"INCLINATION":53.1622,"RA_OF_ASC_NODE":115.0749,"ARG_OF_PERICENTER":98.077,"MEAN_ANOMALY":262.0376,"EPHEMERIS_TYPE":0,"CLASSIFICATION_TYPE":"U","NORAD_CAT_ID":48650,"ELEMENT_SET_NO":999,"REV_AT_EPOCH":26378,"BSTAR":0.00010744467,"MEAN_MOTION_DOT":2.825e-5,"MEAN_MOTION_DDOT":0},{"OBJECT_NAME":"CSTP 1.2 (STC 1.2)","OBJECT_ID":"2023-091W","EPOCH":"2026-03-09T23:12:27.821952","MEAN_MOTION":15.2718076,"ECCENTRICITY":0.00204388,"INCLINATION":97.5258,"RA_OF_ASC_NODE":134.3262,"ARG_OF_PERICENTER":84.9592,"MEAN_ANOMALY":275.3979,"EPHEMERIS_TYPE":0,"CLASSIFICATION_TYPE":"U","NORAD_CAT_ID":57186,"ELEMENT_SET_NO":999,"REV_AT_EPOCH":14930,"BSTAR":0.00043035718,"MEAN_MOTION_DOT":0.00011466,"MEAN_MOTION_DDOT":0}]
